start=new Date('2021-11-12T00:00:00.000Z').valueOf();
sats=[{"MEAN_MOTION_DOT":"0.00000905","CENTER_NAME":"EARTH","ECCENTRICITY":"0.00014930","DECAY_DATE":null,"OBJECT_NAME":"STARLINK-2482","ARG_OF_PERICENTER":"77.1417","MEAN_MOTION_DDOT":"0.0000000000000","MEAN_MOTION":"15.06405892","REF_FRAME":"TEME","RA_OF_ASC_NODE":"39.8950","SITE":"AFETR","SEMIMAJOR_AXIS":"6925.330","ELEMENT_SET_NO":"999","REV_AT_EPOCH":"3471","APOAPSIS":"548.229","PERIOD":"95.592","INCLINATION":"53.0558","TIME_SYSTEM":"UTC","RCS_SIZE":"LARGE","EPOCH":"2021-11-11T17:11:27.281472","COUNTRY_CODE":"US","BSTAR":"0.00007962200000","MEAN_ELEMENT_THEORY":"SGP4","PERIAPSIS":"546.162","TLE_LINE2":"2 48139  53.0558  39.8950 0001493  77.1417 282.9738 15.06405892 34715","OBJECT_TYPE":"PAYLOAD","TLE_LINE1":"1 48139U 21027AZ  21315.71628798  .00000905  00000-0  79622-4 0  9991","GP_ID":"189526920","OBJECT_ID":"2021-027AZ","EPHEMERIS_TYPE":"0","MEAN_ANOMALY":"282.9738","NORAD_CAT_ID":"48139","FILE":"3212485","CLASSIFICATION_TYPE":"U","LAUNCH_DATE":"2021-04-07"},{"COUNTRY_CODE":"US","PERIAPSIS":"546.370","TLE_LINE2":"2 48140  53.0566  60.6360 0001209  80.6394 279.4732 15.06401896 34008","MEAN_ELEMENT_THEORY":"SGP4","BSTAR":"0.00007863200000","OBJECT_TYPE":"PAYLOAD","TLE_LINE1":"1 48140U 21027BA  21315.55131069  .00000890  00000-0  78632-4 0  9998","GP_ID":"189504168","EPHEMERIS_TYPE":"0","OBJECT_ID":"2021-027BA","CLASSIFICATION_TYPE":"U","NORAD_CAT_ID":"48140","MEAN_ANOMALY":"279.4732","FILE":"3212435","LAUNCH_DATE":"2021-04-07","CENTER_NAME":"EARTH","MEAN_MOTION_DOT":"0.00000890","ECCENTRICITY":"0.00012090","DECAY_DATE":null,"OBJECT_NAME":"STARLINK-2483","RA_OF_ASC_NODE":"60.6360","SITE":"AFETR","MEAN_MOTION_DDOT":"0.0000000000000","ARG_OF_PERICENTER":"80.6394","REF_FRAME":"TEME","MEAN_MOTION":"15.06401896","ELEMENT_SET_NO":"999","SEMIMAJOR_AXIS":"6925.343","REV_AT_EPOCH":"3400","APOAPSIS":"548.045","PERIOD":"95.592","INCLINATION":"53.0566","TIME_SYSTEM":"UTC","RCS_SIZE":"LARGE","EPOCH":"2021-11-11T13:13:53.243616"},{"MEAN_MOTION":"15.06411358","REF_FRAME":"TEME","ARG_OF_PERICENTER":"77.6392","MEAN_MOTION_DDOT":"0.0000000000000","SITE":"AFETR","RA_OF_ASC_NODE":"60.8478","OBJECT_NAME":"STARLINK-2484","DECAY_DATE":null,"ECCENTRICITY":"0.00012810","MEAN_MOTION_DOT":"0.00000978","CENTER_NAME":"EARTH","EPOCH":"2021-11-11T12:11:33.309888","RCS_SIZE":"LARGE","INCLINATION":"53.0571","TIME_SYSTEM":"UTC","PERIOD":"95.591","APOAPSIS":"548.066","REV_AT_EPOCH":"3441","SEMIMAJOR_AXIS":"6925.314","ELEMENT_SET_NO":"999","GP_ID":"189494387","TLE_LINE1":"1 48141U 21027BB  21315.50802442  .00000978  00000-0  84483-4 0  9992","OBJECT_TYPE":"PAYLOAD","BSTAR":"0.00008448300000","MEAN_ELEMENT_THEORY":"SGP4","TLE_LINE2":"2 48141  53.0571  60.8478 0001281  77.6392 282.4740 15.06411358 34413","PERIAPSIS":"546.292","COUNTRY_CODE":"US","LAUNCH_DATE":"2021-04-07","FILE":"3212088","NORAD_CAT_ID":"48141","MEAN_ANOMALY":"282.4740","CLASSIFICATION_TYPE":"U","OBJECT_ID":"2021-027BB","EPHEMERIS_TYPE":"0"},{"LAUNCH_DATE":"2021-04-07","CLASSIFICATION_TYPE":"U","FILE":"3212088","NORAD_CAT_ID":"48142","MEAN_ANOMALY":"280.8030","EPHEMERIS_TYPE":"0","OBJECT_ID":"2021-027BC","GP_ID":"189495137","TLE_LINE1":"1 48142U 21027BC  21315.51355271  .00000701  00000-0  65893-4 0  9995","OBJECT_TYPE":"PAYLOAD","TLE_LINE2":"2 48142  53.0581  40.8212 0001195  79.3093 280.8030 15.06412044 34686","PERIAPSIS":"546.349","BSTAR":"0.00006589300000","MEAN_ELEMENT_THEORY":"SGP4","COUNTRY_CODE":"US","EPOCH":"2021-11-11T12:19:30.954144","RCS_SIZE":"LARGE","INCLINATION":"53.0581","TIME_SYSTEM":"UTC","PERIOD":"95.591","APOAPSIS":"548.004","REV_AT_EPOCH":"3468","ELEMENT_SET_NO":"999","SEMIMAJOR_AXIS":"6925.312","RA_OF_ASC_NODE":"40.8212","SITE":"AFETR","MEAN_MOTION":"15.06412044","REF_FRAME":"TEME","ARG_OF_PERICENTER":"79.3093","MEAN_MOTION_DDOT":"0.0000000000000","ECCENTRICITY":"0.00011950","DECAY_DATE":null,"OBJECT_NAME":"STARLINK-2485","CENTER_NAME":"EARTH","MEAN_MOTION_DOT":"0.00000701"},{"BSTAR":"0.00001108400000","MEAN_ELEMENT_THEORY":"SGP4","PERIAPSIS":"553.725","TLE_LINE2":"2 48143  53.0506 355.3328 0001383  84.1447 275.9698 15.03965779 35302","COUNTRY_CODE":"US","TLE_LINE1":"1 48143U 21027BD  21315.40336556 -.00000120  00000-0  11084-4 0  9998","GP_ID":"189493885","OBJECT_TYPE":"PAYLOAD","MEAN_ANOMALY":"275.9698","NORAD_CAT_ID":"48143","FILE":"3212088","CLASSIFICATION_TYPE":"U","OBJECT_ID":"2021-027BD","EPHEMERIS_TYPE":"0","LAUNCH_DATE":"2021-04-07","MEAN_MOTION_DOT":"-0.00000120","CENTER_NAME":"EARTH","MEAN_MOTION_DDOT":"0.0000000000000","ARG_OF_PERICENTER":"84.1447","MEAN_MOTION":"15.03965779","REF_FRAME":"TEME","SITE":"AFETR","RA_OF_ASC_NODE":"355.3328","DECAY_DATE":null,"OBJECT_NAME":"STARLINK-2486","ECCENTRICITY":"0.00013830","PERIOD":"95.747","ELEMENT_SET_NO":"999","SEMIMAJOR_AXIS":"6932.819","REV_AT_EPOCH":"3530","APOAPSIS":"555.643","RCS_SIZE":"LARGE","EPOCH":"2021-11-11T09:40:50.784384","TIME_SYSTEM":"UTC","INCLINATION":"53.0506"},{"MEAN_MOTION_DDOT":"0.0000000000000","ARG_OF_PERICENTER":"80.2960","MEAN_MOTION":"15.06401211","REF_FRAME":"TEME","SITE":"AFETR","RA_OF_ASC_NODE":"39.8941","DECAY_DATE":null,"ECCENTRICITY":"0.00014160","OBJECT_NAME":"STARLINK-2487","MEAN_MOTION_DOT":"-0.00002188","CENTER_NAME":"EARTH","RCS_SIZE":"LARGE","EPOCH":"2021-11-11T17:16:45.261984","TIME_SYSTEM":"UTC","INCLINATION":"53.0568","PERIOD":"95.592","SEMIMAJOR_AXIS":"6925.345","ELEMENT_SET_NO":"999","REV_AT_EPOCH":"3470","APOAPSIS":"548.190","TLE_LINE1":"1 48144U 21027BE  21315.71996831 -.00002188  00000-0 -12804-3 0  9998","GP_ID":"189527672","OBJECT_TYPE":"PAYLOAD","MEAN_ELEMENT_THEORY":"SGP4","BSTAR":"-0.00012804000000","PERIAPSIS":"546.229","TLE_LINE2":"2 48144  53.0568  39.8941 0001416  80.2960 279.8189 15.06401211 34700","COUNTRY_CODE":"US","LAUNCH_DATE":"2021-04-07","NORAD_CAT_ID":"48144","MEAN_ANOMALY":"279.8189","FILE":"3212485","CLASSIFICATION_TYPE":"U","OBJECT_ID":"2021-027BE","EPHEMERIS_TYPE":"0"},{"PERIOD":"95.592","SEMIMAJOR_AXIS":"6925.361","ELEMENT_SET_NO":"999","REV_AT_EPOCH":"3468","APOAPSIS":"548.106","RCS_SIZE":"LARGE","EPOCH":"2021-11-11T12:35:26.503584","INCLINATION":"53.0567","TIME_SYSTEM":"UTC","MEAN_MOTION_DOT":"-0.00001404","CENTER_NAME":"EARTH","MEAN_MOTION_DDOT":"0.0000000000000","ARG_OF_PERICENTER":"82.7084","MEAN_MOTION":"15.06395942","REF_FRAME":"TEME","RA_OF_ASC_NODE":"40.7557","SITE":"AFETR","ECCENTRICITY":"0.00012700","DECAY_DATE":null,"OBJECT_NAME":"STARLINK-2488","NORAD_CAT_ID":"48145","MEAN_ANOMALY":"277.4049","FILE":"3212088","CLASSIFICATION_TYPE":"U","OBJECT_ID":"2021-027BF","EPHEMERIS_TYPE":"0","LAUNCH_DATE":"2021-04-07","BSTAR":"-0.00007536600000","MEAN_ELEMENT_THEORY":"SGP4","PERIAPSIS":"546.346","TLE_LINE2":"2 48145  53.0567  40.7557 0001270  82.7084 277.4049 15.06395942 34685","COUNTRY_CODE":"US","TLE_LINE1":"1 48145U 21027BF  21315.52461231 -.00001404  00000-0 -75366-4 0  9992","GP_ID":"189494887","OBJECT_TYPE":"PAYLOAD"},{"OBJECT_TYPE":"PAYLOAD","GP_ID":"189494638","TLE_LINE1":"1 48146U 21027BG  21315.58911853 -.00001612  00000-0 -89324-4 0  9999","COUNTRY_CODE":"US","TLE_LINE2":"2 48146  53.0568  60.4690 0001394  79.6427 280.4719 15.06405882 34411","PERIAPSIS":"546.230","BSTAR":"-0.00008932400000","MEAN_ELEMENT_THEORY":"SGP4","LAUNCH_DATE":"2021-04-07","EPHEMERIS_TYPE":"0","OBJECT_ID":"2021-027BG","CLASSIFICATION_TYPE":"U","FILE":"3212088","NORAD_CAT_ID":"48146","MEAN_ANOMALY":"280.4719","OBJECT_NAME":"STARLINK-2489","DECAY_DATE":null,"ECCENTRICITY":"0.00013940","SITE":"AFETR","RA_OF_ASC_NODE":"60.4690","REF_FRAME":"TEME","MEAN_MOTION":"15.06405882","ARG_OF_PERICENTER":"79.6427","MEAN_MOTION_DDOT":"0.0000000000000","CENTER_NAME":"EARTH","MEAN_MOTION_DOT":"-0.00001612","TIME_SYSTEM":"UTC","INCLINATION":"53.0568","EPOCH":"2021-11-11T14:08:19.840992","RCS_SIZE":"LARGE","REV_AT_EPOCH":"3441","APOAPSIS":"548.161","ELEMENT_SET_NO":"999","SEMIMAJOR_AXIS":"6925.331","PERIOD":"95.592"},{"MEAN_ELEMENT_THEORY":"SGP4","BSTAR":"0.00006625300000","TLE_LINE2":"2 48147  53.0730  64.4899 0001264  72.7378 287.3749 15.06410406 34375","PERIAPSIS":"546.306","COUNTRY_CODE":"US","GP_ID":"189526921","TLE_LINE1":"1 48147U 21027BH  21315.78586292  .00000706  00000-0  66253-4 0  9994","OBJECT_TYPE":"PAYLOAD","FILE":"3212485","NORAD_CAT_ID":"48147","MEAN_ANOMALY":"287.3749","CLASSIFICATION_TYPE":"U","OBJECT_ID":"2021-027BH","EPHEMERIS_TYPE":"0","LAUNCH_DATE":"2021-04-07","MEAN_MOTION_DOT":"0.00000706","CENTER_NAME":"EARTH","MEAN_MOTION":"15.06410406","REF_FRAME":"TEME","MEAN_MOTION_DDOT":"0.0000000000000","ARG_OF_PERICENTER":"72.7378","RA_OF_ASC_NODE":"64.4899","SITE":"AFETR","OBJECT_NAME":"STARLINK-2490","DECAY_DATE":null,"ECCENTRICITY":"0.00012640","PERIOD":"95.591","APOAPSIS":"548.057","REV_AT_EPOCH":"3437","ELEMENT_SET_NO":"999","SEMIMAJOR_AXIS":"6925.317","EPOCH":"2021-11-11T18:51:38.556288","RCS_SIZE":"LARGE","TIME_SYSTEM":"UTC","INCLINATION":"53.0730"},{"LAUNCH_DATE":"2021-04-07","FILE":"3212485","NORAD_CAT_ID":"48148","MEAN_ANOMALY":"280.1846","CLASSIFICATION_TYPE":"U","OBJECT_ID":"2021-027BJ","EPHEMERIS_TYPE":"0","GP_ID":"189527175","TLE_LINE1":"1 48148U 21027BJ  21315.68863573 -.00001065  00000-0 -52612-4 0  9999","OBJECT_TYPE":"PAYLOAD","BSTAR":"-0.00005261200000","MEAN_ELEMENT_THEORY":"SGP4","TLE_LINE2":"2 48148  53.0561  60.0379 0001211  79.9279 280.1846 15.06399060 34410","PERIAPSIS":"546.378","COUNTRY_CODE":"US","EPOCH":"2021-11-11T16:31:38.127072","RCS_SIZE":"LARGE","INCLINATION":"53.0561","TIME_SYSTEM":"UTC","PERIOD":"95.592","REV_AT_EPOCH":"3441","APOAPSIS":"548.055","ELEMENT_SET_NO":"999","SEMIMAJOR_AXIS":"6925.351","REF_FRAME":"TEME","MEAN_MOTION":"15.06399060","MEAN_MOTION_DDOT":"0.0000000000000","ARG_OF_PERICENTER":"79.9279","RA_OF_ASC_NODE":"60.0379","SITE":"AFETR","OBJECT_NAME":"STARLINK-2491","DECAY_DATE":null,"ECCENTRICITY":"0.00012110","MEAN_MOTION_DOT":"-0.00001065","CENTER_NAME":"EARTH"}];
